start=new Date('2023-06-23T00:00:00.000Z').valueOf();
sats=[{"SEMIMAJOR_AXIS":"6917.881","PERIOD":"95.438","RA_OF_ASC_NODE":"32.7185","DECAY_DATE":null,"TLE_LINE1":"1 53743U 22107AV  23173.74804970  .00001920  00000-0  13871-3 0  9994","ELEMENT_SET_NO":"999","REF_FRAME":"TEME","CLASSIFICATION_TYPE":"U","APOAPSIS":"540.520","MEAN_MOTION_DOT":"0.00001920","TIME_SYSTEM":"UTC","COUNTRY_CODE":"US","PERIAPSIS":"538.971","GP_ID":"234464139","REV_AT_EPOCH":"4421","LAUNCH_DATE":"2022-09-05","NORAD_CAT_ID":"53743","OBJECT_NAME":"STARLINK-4645","ARG_OF_PERICENTER":"81.7175","MEAN_MOTION_DDOT":"0.0000000000000","OBJECT_TYPE":"PAYLOAD","EPHEMERIS_TYPE":"0","RCS_SIZE":"LARGE","BSTAR":"0.00013871000000","INCLINATION":"53.2163","MEAN_ELEMENT_THEORY":"SGP4","SITE":"AFETR","MEAN_MOTION":"15.08839906","OBJECT_ID":"2022-107AV","TLE_LINE2":"2 53743  53.2163  32.7185 0001120  81.7175 278.3944 15.08839906 44210","ECCENTRICITY":"0.00011200","FILE":"3940210","MEAN_ANOMALY":"278.3944","EPOCH":"2023-06-22T17:57:11.494080","CENTER_NAME":"EARTH"},{"MEAN_ELEMENT_THEORY":"SGP4","BSTAR":"0.00001582700000","INCLINATION":"53.2172","RCS_SIZE":"LARGE","OBJECT_TYPE":"PAYLOAD","EPHEMERIS_TYPE":"0","MEAN_MOTION_DDOT":"0.0000000000000","ARG_OF_PERICENTER":"81.3006","EPOCH":"2023-06-22T08:10:20.405280","CENTER_NAME":"EARTH","MEAN_ANOMALY":"278.8120","TLE_LINE2":"2 53744  53.2172  34.4389 0001180  81.3006 278.8120 15.08841147 44155","FILE":"3939894","ECCENTRICITY":"0.00011800","SITE":"AFETR","OBJECT_ID":"2022-107AW","MEAN_MOTION":"15.08841147","CLASSIFICATION_TYPE":"U","ELEMENT_SET_NO":"999","TLE_LINE1":"1 53744U 22107AW  23173.34051395 -.00000036  00000-0  15827-4 0  9998","DECAY_DATE":null,"REF_FRAME":"TEME","PERIOD":"95.437","RA_OF_ASC_NODE":"34.4389","SEMIMAJOR_AXIS":"6917.877","LAUNCH_DATE":"2022-09-05","OBJECT_NAME":"STARLINK-4670","NORAD_CAT_ID":"53744","GP_ID":"234457509","REV_AT_EPOCH":"4415","TIME_SYSTEM":"UTC","COUNTRY_CODE":"US","PERIAPSIS":"538.926","MEAN_MOTION_DOT":"-0.00000036","APOAPSIS":"540.558"},{"MEAN_MOTION_DDOT":"0.0000000000000","ARG_OF_PERICENTER":"79.9669","OBJECT_TYPE":"PAYLOAD","EPHEMERIS_TYPE":"0","RCS_SIZE":"LARGE","MEAN_ELEMENT_THEORY":"SGP4","INCLINATION":"53.2170","BSTAR":"0.00010228000000","FILE":"3940203","ECCENTRICITY":"0.00007670","TLE_LINE2":"2 53745  53.2170  32.7415 0000767  79.9669 280.1410 15.08831681 44210","MEAN_MOTION":"15.08831681","OBJECT_ID":"2022-107AX","SITE":"AFETR","MEAN_ANOMALY":"280.1410","CENTER_NAME":"EARTH","EPOCH":"2023-06-22T18:02:29.785632","SEMIMAJOR_AXIS":"6917.906","REF_FRAME":"TEME","DECAY_DATE":null,"TLE_LINE1":"1 53745U 22107AX  23173.75173363  .00001340  00000-0  10228-3 0  9991","ELEMENT_SET_NO":"999","RA_OF_ASC_NODE":"32.7415","PERIOD":"95.438","CLASSIFICATION_TYPE":"U","MEAN_MOTION_DOT":"0.00001340","APOAPSIS":"540.301","REV_AT_EPOCH":"4421","GP_ID":"234464661","PERIAPSIS":"539.240","TIME_SYSTEM":"UTC","COUNTRY_CODE":"US","OBJECT_NAME":"STARLINK-4656","NORAD_CAT_ID":"53745","LAUNCH_DATE":"2022-09-05"},{"EPOCH":"2023-06-22T19:27:16.092288","CENTER_NAME":"EARTH","MEAN_ANOMALY":"261.0050","TLE_LINE2":"2 53746  53.2168  32.3977 0001211  99.1079 261.0050 15.08839387 44221","ECCENTRICITY":"0.00012110","FILE":"3940026","SITE":"AFETR","MEAN_MOTION":"15.08839387","OBJECT_ID":"2022-107AY","MEAN_ELEMENT_THEORY":"SGP4","BSTAR":"0.00008437700000","INCLINATION":"53.2168","RCS_SIZE":"LARGE","EPHEMERIS_TYPE":"0","OBJECT_TYPE":"PAYLOAD","ARG_OF_PERICENTER":"99.1079","MEAN_MOTION_DDOT":"0.0000000000000","LAUNCH_DATE":"2022-09-05","NORAD_CAT_ID":"53746","OBJECT_NAME":"STARLINK-4589","GP_ID":"234460221","REV_AT_EPOCH":"4422","COUNTRY_CODE":"US","TIME_SYSTEM":"UTC","PERIAPSIS":"538.910","MEAN_MOTION_DOT":"0.00001055","APOAPSIS":"540.585","CLASSIFICATION_TYPE":"U","TLE_LINE1":"1 53746U 22107AY  23173.81060292  .00001055  00000-0  84377-4 0  9995","DECAY_DATE":null,"ELEMENT_SET_NO":"999","REF_FRAME":"TEME","PERIOD":"95.438","RA_OF_ASC_NODE":"32.3977","SEMIMAJOR_AXIS":"6917.882"},{"MEAN_MOTION_DOT":"0.00002673","APOAPSIS":"540.451","REV_AT_EPOCH":"4421","GP_ID":"234464178","PERIAPSIS":"539.030","COUNTRY_CODE":"US","TIME_SYSTEM":"UTC","OBJECT_NAME":"STARLINK-4669","NORAD_CAT_ID":"53748","LAUNCH_DATE":"2022-09-05","SEMIMAJOR_AXIS":"6917.875","REF_FRAME":"TEME","DECAY_DATE":null,"TLE_LINE1":"1 53748U 22107BA  23173.75541681  .00002673  00000-0  18594-3 0  9990","ELEMENT_SET_NO":"999","RA_OF_ASC_NODE":"32.7632","PERIOD":"95.437","CLASSIFICATION_TYPE":"U","FILE":"3940204","ECCENTRICITY":"0.00010270","TLE_LINE2":"2 53748  53.2163  32.7632 0001027  73.7895 286.3210 15.08841703 44211","OBJECT_ID":"2022-107BA","MEAN_MOTION":"15.08841703","SITE":"AFETR","MEAN_ANOMALY":"286.3210","CENTER_NAME":"EARTH","EPOCH":"2023-06-22T18:07:48.012384","ARG_OF_PERICENTER":"73.7895","MEAN_MOTION_DDOT":"0.0000000000000","EPHEMERIS_TYPE":"0","OBJECT_TYPE":"PAYLOAD","RCS_SIZE":"LARGE","MEAN_ELEMENT_THEORY":"SGP4","INCLINATION":"53.2163","BSTAR":"0.00018594000000"},{"RCS_SIZE":"LARGE","BSTAR":"0.00007659200000","INCLINATION":"53.2173","MEAN_ELEMENT_THEORY":"SGP4","ARG_OF_PERICENTER":"100.0726","MEAN_MOTION_DDOT":"0.0000000000000","EPHEMERIS_TYPE":"0","OBJECT_TYPE":"PAYLOAD","MEAN_ANOMALY":"260.0380","EPOCH":"2023-06-22T18:13:06.118176","CENTER_NAME":"EARTH","SITE":"AFETR","OBJECT_ID":"2022-107BB","MEAN_MOTION":"15.08834470","TLE_LINE2":"2 53749  53.2173  32.7485 0001009 100.0726 260.0380 15.08834470 44216","FILE":"3940204","ECCENTRICITY":"0.00010090","PERIOD":"95.438","RA_OF_ASC_NODE":"32.7485","TLE_LINE1":"1 53749U 22107BB  23173.75909859  .00000931  00000-0  76592-4 0  9994","ELEMENT_SET_NO":"999","DECAY_DATE":null,"REF_FRAME":"TEME","CLASSIFICATION_TYPE":"U","SEMIMAJOR_AXIS":"6917.897","LAUNCH_DATE":"2022-09-05","NORAD_CAT_ID":"53749","OBJECT_NAME":"STARLINK-4680","APOAPSIS":"540.460","MEAN_MOTION_DOT":"0.00000931","COUNTRY_CODE":"US","TIME_SYSTEM":"UTC","PERIAPSIS":"539.064","GP_ID":"234464681","REV_AT_EPOCH":"4421"},{"SEMIMAJOR_AXIS":"6917.689","RA_OF_ASC_NODE":"32.8074","PERIOD":"95.434","REF_FRAME":"TEME","DECAY_DATE":null,"TLE_LINE1":"1 53750U 22107BC  23173.76275636 -.00016249  00000-0 -10034-2 0  9994","ELEMENT_SET_NO":"999","CLASSIFICATION_TYPE":"U","APOAPSIS":"540.503","MEAN_MOTION_DOT":"-0.00016249","PERIAPSIS":"538.605","COUNTRY_CODE":"US","TIME_SYSTEM":"UTC","REV_AT_EPOCH":"4421","GP_ID":"234464182","NORAD_CAT_ID":"53750","OBJECT_NAME":"STARLINK-4612","LAUNCH_DATE":"2022-09-05","ARG_OF_PERICENTER":"82.4388","MEAN_MOTION_DDOT":"0.0000000000000","OBJECT_TYPE":"PAYLOAD","EPHEMERIS_TYPE":"0","RCS_SIZE":"LARGE","INCLINATION":"53.2169","BSTAR":"-0.00100340000000","MEAN_ELEMENT_THEORY":"SGP4","MEAN_MOTION":"15.08902594","OBJECT_ID":"2022-107BC","SITE":"AFETR","ECCENTRICITY":"0.00013720","FILE":"3940250","TLE_LINE2":"2 53750  53.2169  32.8074 0001372  82.4388 277.6760 15.08902594 44217","MEAN_ANOMALY":"277.6760","CENTER_NAME":"EARTH","EPOCH":"2023-06-22T18:18:22.149504"},{"RCS_SIZE":"LARGE","MEAN_ELEMENT_THEORY":"SGP4","INCLINATION":"53.2162","BSTAR":"-0.00000233770000","ARG_OF_PERICENTER":"96.7379","MEAN_MOTION_DDOT":"0.0000000000000","EPHEMERIS_TYPE":"0","OBJECT_TYPE":"PAYLOAD","MEAN_ANOMALY":"263.3739","CENTER_NAME":"EARTH","EPOCH":"2023-06-22T01:18:15.357888","FILE":"3939622","ECCENTRICITY":"0.00011110","TLE_LINE2":"2 53773  53.2162  55.6683 0001111  96.7379 263.3739 15.08842073 43046","OBJECT_ID":"2022-111A","MEAN_MOTION":"15.08842073","SITE":"AFETR","REF_FRAME":"TEME","DECAY_DATE":null,"TLE_LINE1":"1 53773U 22111A   23173.05434442 -.00000325  00000-0 -23377-5 0  9993","ELEMENT_SET_NO":"999","RA_OF_ASC_NODE":"55.6683","PERIOD":"95.437","CLASSIFICATION_TYPE":"U","SEMIMAJOR_AXIS":"6917.874","NORAD_CAT_ID":"53773","OBJECT_NAME":"STARLINK-4718","LAUNCH_DATE":"2022-09-11","MEAN_MOTION_DOT":"-0.00000325","APOAPSIS":"540.508","REV_AT_EPOCH":"4304","GP_ID":"234450967","PERIAPSIS":"538.970","COUNTRY_CODE":"US","TIME_SYSTEM":"UTC"},{"SITE":"AFETR","OBJECT_ID":"2022-111B","MEAN_MOTION":"15.08838076","TLE_LINE2":"2 53774  53.2165  54.1556 0001082  94.4611 265.6504 15.08838076 43092","ECCENTRICITY":"0.00010820","FILE":"3939913","EPOCH":"2023-06-22T09:09:52.786080","CENTER_NAME":"EARTH","MEAN_ANOMALY":"265.6504","EPHEMERIS_TYPE":"0","OBJECT_TYPE":"PAYLOAD","MEAN_MOTION_DDOT":"0.0000000000000","ARG_OF_PERICENTER":"94.4611","BSTAR":"-0.00000917950000","INCLINATION":"53.2165","MEAN_ELEMENT_THEORY":"SGP4","RCS_SIZE":"MEDIUM","TIME_SYSTEM":"UTC","COUNTRY_CODE":"US","PERIAPSIS":"539.003","GP_ID":"234457737","REV_AT_EPOCH":"4309","APOAPSIS":"540.500","MEAN_MOTION_DOT":"-0.00000434","LAUNCH_DATE":"2022-09-11","OBJECT_NAME":"STARLINK-4719","NORAD_CAT_ID":"53774","SEMIMAJOR_AXIS":"6917.886","CLASSIFICATION_TYPE":"U","PERIOD":"95.438","RA_OF_ASC_NODE":"54.1556","DECAY_DATE":null,"TLE_LINE1":"1 53774U 22111B   23173.38186095 -.00000434  00000-0 -91795-5 0  9998","ELEMENT_SET_NO":"999","REF_FRAME":"TEME"},{"PERIAPSIS":"538.956","TIME_SYSTEM":"UTC","COUNTRY_CODE":"US","REV_AT_EPOCH":"4317","GP_ID":"234450709","APOAPSIS":"540.531","MEAN_MOTION_DOT":"0.00000672","NORAD_CAT_ID":"53775","OBJECT_NAME":"STARLINK-4722","LAUNCH_DATE":"2022-09-11","SEMIMAJOR_AXIS":"6917.878","CLASSIFICATION_TYPE":"U","RA_OF_ASC_NODE":"46.1561","PERIOD":"95.438","REF_FRAME":"TEME","TLE_LINE1":"1 53775U 22111C   23173.01482329  .00000672  00000-0  60274-4 0  9997","DECAY_DATE":null,"ELEMENT_SET_NO":"999","MEAN_MOTION":"15.08840626","OBJECT_ID":"2022-111C","SITE":"AFETR","FILE":"3939622","ECCENTRICITY":"0.00011390","TLE_LINE2":"2 53775  53.2168  46.1561 0001139  87.2723 272.8400 15.08840626 43178","CENTER_NAME":"EARTH","EPOCH":"2023-06-22T00:21:20.732256","MEAN_ANOMALY":"272.8400","EPHEMERIS_TYPE":"0","OBJECT_TYPE":"PAYLOAD","MEAN_MOTION_DDOT":"0.0000000000000","ARG_OF_PERICENTER":"87.2723","INCLINATION":"53.2168","BSTAR":"0.00006027400000","MEAN_ELEMENT_THEORY":"SGP4","RCS_SIZE":"LARGE"}];
